STARLINK-35684          
1 66458U 25262C   25330.61642786  .00562604  00000+0  20896-2 0  9998
2 66458  42.9979 166.8983 0007425 234.1356 125.8828 15.85815553  3041
STARLINK-35449          
1 66459U 25262D   25330.99383258  .00492647  00000+0  18902-2 0  9990
2 66459  42.9970 164.5643 0009684 307.1445  52.8543 15.85287056  3101
STARLINK-35424          
1 66460U 25262E   25330.99332308  .00485902  00000+0  18691-2 0  9993
2 66460  42.9973 164.5609 0009953 309.6091  50.3902 15.85246808  3103
STARLINK-35132          
1 66461U 25262F   25330.99284984  .00459705  00000+0  17675-2 0  9993
2 66461  42.9973 164.5570 0010475 315.6172  44.3861 15.85311816  3108
STARLINK-35499          
1 66462U 25262G   25330.55103006  .00565816  00000+0  20943-2 0  9994
2 66462  42.9972 167.2662 0006748 201.1683 158.8912 15.85883717  3038
STARLINK-35463          
1 66463U 25262H   25330.61318296  .00310313  00000+0  12680-2 0  9990
2 66463  42.9975 166.8703 0005018 284.2249  75.8066 15.84463122  3044
STARLINK-35435          
1 66464U 25262J   25330.55053773  .00473624  00000+0  17860-2 0  9990
2 66464  42.9973 167.2620 0006438 223.9598 136.0764 15.85723211  3033
STARLINK-35448          
1 66465U 25262K   25330.61149900  .00564385  00000+0  21328-2 0  9995
2 66465  42.9975 166.8566 0007811 230.2121 129.8065 15.85450332  3045
STARLINK-35388          
1 66466U 25262L   25330.61097640  .00283699  00000+0  11847-2 0  9990
2 66466  42.9973 166.8523 0004397 283.9043  76.1340 15.84078637  3044
STARLINK-35682          
1 66467U 25262M   25330.86422343 -.00542641  00000+0 -25387-2 0  9991
2 66467  42.9976 165.3107 0002914 289.6721  70.3837 15.83608188  3089
STARLINK-35331          
1 66468U 25262N   25330.61059553  .00554995  00000+0  21016-2 0  9992
2 66468  42.9975 166.8492 0007979 229.1458 130.8724 15.85428803  3043
STARLINK-35451          
1 66469U 25262P   25330.60931031  .00553052  00000+0  20977-2 0  9990
2 66469  42.9969 166.8382 0007647 224.3751 135.6509 15.85402672  3040
