CCSDS_OMM_VERS = 2.0
CREATION_DATE  = 
ORIGINATOR     = 

OBJECT_NAME    = STARLINK-35684
OBJECT_ID      = 2025-262C
CENTER_NAME    = EARTH
REF_FRAME      = TEME
TIME_SYSTEM    = UTC
MEAN_ELEMENT_THEORY = SGP/SGP4

EPOCH          = 2025-11-26T14:47:39.367104
MEAN_MOTION    = 15.85815553
ECCENTRICITY   = .00074258
INCLINATION    = 42.9979
RA_OF_ASC_NODE = 166.8983
ARG_OF_PERICENTER = 234.1356
MEAN_ANOMALY   = 125.8828

EPHEMERIS_TYPE = 0
CLASSIFICATION_TYPE = U
NORAD_CAT_ID   = 66458
ELEMENT_SET_NO = 999
REV_AT_EPOCH   = 304
BSTAR          = .20896048E-2
MEAN_MOTION_DOT = .562604E-2
MEAN_MOTION_DDOT = 0

CCSDS_OMM_VERS = 2.0
CREATION_DATE  = 
ORIGINATOR     = 

OBJECT_NAME    = STARLINK-35449
OBJECT_ID      = 2025-262D
CENTER_NAME    = EARTH
REF_FRAME      = TEME
TIME_SYSTEM    = UTC
MEAN_ELEMENT_THEORY = SGP/SGP4

EPOCH          = 2025-11-26T23:51:07.134048
MEAN_MOTION    = 15.85287056
ECCENTRICITY   = .0009685
INCLINATION    = 42.9970
RA_OF_ASC_NODE = 164.5643
ARG_OF_PERICENTER = 307.1445
MEAN_ANOMALY   = 52.8543

EPHEMERIS_TYPE = 0
CLASSIFICATION_TYPE = U
NORAD_CAT_ID   = 66459
ELEMENT_SET_NO = 999
REV_AT_EPOCH   = 310
BSTAR          = .18902E-2
MEAN_MOTION_DOT = .492647E-2
MEAN_MOTION_DDOT = 0

CCSDS_OMM_VERS = 2.0
CREATION_DATE  = 
ORIGINATOR     = 

OBJECT_NAME    = STARLINK-35424
OBJECT_ID      = 2025-262E
CENTER_NAME    = EARTH
REF_FRAME      = TEME
TIME_SYSTEM    = UTC
MEAN_ELEMENT_THEORY = SGP/SGP4

EPOCH          = 2025-11-26T23:50:23.114112
MEAN_MOTION    = 15.85246808
ECCENTRICITY   = .0009953
INCLINATION    = 42.9973
RA_OF_ASC_NODE = 164.5609
ARG_OF_PERICENTER = 309.6091
MEAN_ANOMALY   = 50.3902

EPHEMERIS_TYPE = 0
CLASSIFICATION_TYPE = U
NORAD_CAT_ID   = 66460
ELEMENT_SET_NO = 999
REV_AT_EPOCH   = 310
BSTAR          = .18691E-2
MEAN_MOTION_DOT = .485902E-2
MEAN_MOTION_DDOT = 0

CCSDS_OMM_VERS = 2.0
CREATION_DATE  = 
ORIGINATOR     = 

OBJECT_NAME    = STARLINK-35132
OBJECT_ID      = 2025-262F
CENTER_NAME    = EARTH
REF_FRAME      = TEME
TIME_SYSTEM    = UTC
MEAN_ELEMENT_THEORY = SGP/SGP4

EPOCH          = 2025-11-26T23:49:42.226176
MEAN_MOTION    = 15.85311816
ECCENTRICITY   = .0010476
INCLINATION    = 42.9973
RA_OF_ASC_NODE = 164.5570
ARG_OF_PERICENTER = 315.6172
MEAN_ANOMALY   = 44.3861

EPHEMERIS_TYPE = 0
CLASSIFICATION_TYPE = U
NORAD_CAT_ID   = 66461
ELEMENT_SET_NO = 999
REV_AT_EPOCH   = 310
BSTAR          = .17675E-2
MEAN_MOTION_DOT = .459705E-2
MEAN_MOTION_DDOT = 0

CCSDS_OMM_VERS = 2.0
CREATION_DATE  = 
ORIGINATOR     = 

OBJECT_NAME    = STARLINK-35499
OBJECT_ID      = 2025-262G
CENTER_NAME    = EARTH
REF_FRAME      = TEME
TIME_SYSTEM    = UTC
MEAN_ELEMENT_THEORY = SGP/SGP4

EPOCH          = 2025-11-26T13:13:28.997184
MEAN_MOTION    = 15.85883717
ECCENTRICITY   = .00067485
INCLINATION    = 42.9972
RA_OF_ASC_NODE = 167.2662
ARG_OF_PERICENTER = 201.1683
MEAN_ANOMALY   = 158.8912

EPHEMERIS_TYPE = 0
CLASSIFICATION_TYPE = U
NORAD_CAT_ID   = 66462
ELEMENT_SET_NO = 999
REV_AT_EPOCH   = 303
BSTAR          = .20943389E-2
MEAN_MOTION_DOT = .565816E-2
MEAN_MOTION_DDOT = 0

CCSDS_OMM_VERS = 2.0
CREATION_DATE  = 
ORIGINATOR     = 

OBJECT_NAME    = STARLINK-35463
OBJECT_ID      = 2025-262H
CENTER_NAME    = EARTH
REF_FRAME      = TEME
TIME_SYSTEM    = UTC
MEAN_ELEMENT_THEORY = SGP/SGP4

EPOCH          = 2025-11-26T14:42:59.007744
MEAN_MOTION    = 15.84463122
ECCENTRICITY   = .00050185
INCLINATION    = 42.9975
RA_OF_ASC_NODE = 166.8703
ARG_OF_PERICENTER = 284.2249
MEAN_ANOMALY   = 75.8066

EPHEMERIS_TYPE = 0
CLASSIFICATION_TYPE = U
NORAD_CAT_ID   = 66463
ELEMENT_SET_NO = 999
REV_AT_EPOCH   = 304
BSTAR          = .12680291E-2
MEAN_MOTION_DOT = .310313E-2
MEAN_MOTION_DDOT = 0

CCSDS_OMM_VERS = 2.0
CREATION_DATE  = 
ORIGINATOR     = 

OBJECT_NAME    = STARLINK-35435
OBJECT_ID      = 2025-262J
CENTER_NAME    = EARTH
REF_FRAME      = TEME
TIME_SYSTEM    = UTC
MEAN_ELEMENT_THEORY = SGP/SGP4

EPOCH          = 2025-11-26T13:12:46.459872
MEAN_MOTION    = 15.85723211
ECCENTRICITY   = .00064384
INCLINATION    = 42.9973
RA_OF_ASC_NODE = 167.2620
ARG_OF_PERICENTER = 223.9598
MEAN_ANOMALY   = 136.0764

EPHEMERIS_TYPE = 0
CLASSIFICATION_TYPE = U
NORAD_CAT_ID   = 66464
ELEMENT_SET_NO = 999
REV_AT_EPOCH   = 303
BSTAR          = .17859508E-2
MEAN_MOTION_DOT = .473624E-2
MEAN_MOTION_DDOT = 0

CCSDS_OMM_VERS = 2.0
CREATION_DATE  = 
ORIGINATOR     = 

OBJECT_NAME    = STARLINK-35448
OBJECT_ID      = 2025-262K
CENTER_NAME    = EARTH
REF_FRAME      = TEME
TIME_SYSTEM    = UTC
MEAN_ELEMENT_THEORY = SGP/SGP4

EPOCH          = 2025-11-26T14:40:33.513600
MEAN_MOTION    = 15.85450332
ECCENTRICITY   = .0007811
INCLINATION    = 42.9975
RA_OF_ASC_NODE = 166.8566
ARG_OF_PERICENTER = 230.2121
MEAN_ANOMALY   = 129.8065

EPHEMERIS_TYPE = 0
CLASSIFICATION_TYPE = U
NORAD_CAT_ID   = 66465
ELEMENT_SET_NO = 999
REV_AT_EPOCH   = 304
BSTAR          = .21327861E-2
MEAN_MOTION_DOT = .564385E-2
MEAN_MOTION_DDOT = 0

CCSDS_OMM_VERS = 2.0
CREATION_DATE  = 
ORIGINATOR     = 

OBJECT_NAME    = STARLINK-35388
OBJECT_ID      = 2025-262L
CENTER_NAME    = EARTH
REF_FRAME      = TEME
TIME_SYSTEM    = UTC
MEAN_ELEMENT_THEORY = SGP/SGP4

EPOCH          = 2025-11-26T14:39:48.360960
MEAN_MOTION    = 15.84078637
ECCENTRICITY   = .00043974
INCLINATION    = 42.9973
RA_OF_ASC_NODE = 166.8523
ARG_OF_PERICENTER = 283.9043
MEAN_ANOMALY   = 76.1340

EPHEMERIS_TYPE = 0
CLASSIFICATION_TYPE = U
NORAD_CAT_ID   = 66466
ELEMENT_SET_NO = 999
REV_AT_EPOCH   = 304
BSTAR          = .11847443E-2
MEAN_MOTION_DOT = .283699E-2
MEAN_MOTION_DDOT = 0

CCSDS_OMM_VERS = 2.0
CREATION_DATE  = 
ORIGINATOR     = 

OBJECT_NAME    = STARLINK-35682
OBJECT_ID      = 2025-262M
CENTER_NAME    = EARTH
REF_FRAME      = TEME
TIME_SYSTEM    = UTC
MEAN_ELEMENT_THEORY = SGP/SGP4

EPOCH          = 2025-11-26T20:44:28.904352
MEAN_MOTION    = 15.83608188
ECCENTRICITY   = .00029145
INCLINATION    = 42.9976
RA_OF_ASC_NODE = 165.3107
ARG_OF_PERICENTER = 289.6721
MEAN_ANOMALY   = 70.3837

EPHEMERIS_TYPE = 0
CLASSIFICATION_TYPE = U
NORAD_CAT_ID   = 66467
ELEMENT_SET_NO = 999
REV_AT_EPOCH   = 308
BSTAR          = -.2538675E-2
MEAN_MOTION_DOT = -.542641E-2
MEAN_MOTION_DDOT = 0

CCSDS_OMM_VERS = 2.0
CREATION_DATE  = 
ORIGINATOR     = 

OBJECT_NAME    = STARLINK-35331
OBJECT_ID      = 2025-262N
CENTER_NAME    = EARTH
REF_FRAME      = TEME
TIME_SYSTEM    = UTC
MEAN_ELEMENT_THEORY = SGP/SGP4

EPOCH          = 2025-11-26T14:39:15.453792
MEAN_MOTION    = 15.85428803
ECCENTRICITY   = .00079792
INCLINATION    = 42.9975
RA_OF_ASC_NODE = 166.8492
ARG_OF_PERICENTER = 229.1458
MEAN_ANOMALY   = 130.8724

EPHEMERIS_TYPE = 0
CLASSIFICATION_TYPE = U
NORAD_CAT_ID   = 66468
ELEMENT_SET_NO = 999
REV_AT_EPOCH   = 304
BSTAR          = .21016071E-2
MEAN_MOTION_DOT = .554995E-2
MEAN_MOTION_DDOT = 0

CCSDS_OMM_VERS = 2.0
CREATION_DATE  = 
ORIGINATOR     = 

OBJECT_NAME    = STARLINK-35451
OBJECT_ID      = 2025-262P
CENTER_NAME    = EARTH
REF_FRAME      = TEME
TIME_SYSTEM    = UTC
MEAN_ELEMENT_THEORY = SGP/SGP4

EPOCH          = 2025-11-26T14:37:24.410784
MEAN_MOTION    = 15.85402672
ECCENTRICITY   = .00076476
INCLINATION    = 42.9969
RA_OF_ASC_NODE = 166.8382
ARG_OF_PERICENTER = 224.3751
MEAN_ANOMALY   = 135.6509

EPHEMERIS_TYPE = 0
CLASSIFICATION_TYPE = U
NORAD_CAT_ID   = 66469
ELEMENT_SET_NO = 999
REV_AT_EPOCH   = 304
BSTAR          = .20976529E-2
MEAN_MOTION_DOT = .553052E-2
MEAN_MOTION_DDOT = 0

